NORAD_CAT_ID,OBJECT_NAME,OBJECT_TYPE,EPOCH,MEAN_MOTION,ECCENTRICITY,INCLINATION,RA_OF_ASC_NODE,ARG_OF_PERICENTER,MEAN_ANOMALY,BSTAR,MEAN_MOTION_DOT,MEAN_MOTION_DDOT,TLE_LINE0,TLE_LINE1,TLE_LINE2,SEMIMAJOR_AXIS,PERIOD,APOGEE,PERIGEE,DECAYED
53888.0,STARLINK-5034,PAYLOAD,2022-12-28 13:13:51,15.08848485,0.0001095999999999,53.2182,163.7884,129.0962,231.0128,-7.4868e-05,-1.479e-05,0.0,0 STARLINK-5034,1 53888U 22119C   22362.55129211 -.00001479  00000-0 -74868-4 0  9998,2 53888  53.2182 163.7884 0001096 129.0962 231.0128 15.08848485 15483,6917.854,95.437,540.4780000000002,538.961,0.0
53888.0,STARLINK-5034,PAYLOAD,2022-12-28 21:10:47,15.0884646,0.0001103,53.2182,162.3016,129.692,230.417,-8.617700000000001e-05,-1.659e-05,0.0,0 STARLINK-5034,1 53888U 22119C   22362.88249194 -.00001659  00000-0 -86177-4 0  9993,2 53888  53.2182 162.3016 0001103 129.6920 230.4170 15.08846460 15115,6917.861,95.437,540.489,538.9630000000002,0.0
53888.0,STARLINK-5034,PAYLOAD,2022-12-29 11:29:16,15.08832087,0.0001177999999999,53.2204,159.6304,125.8777,234.2325,-8.932700000000001e-05,-1.709e-05,0.0,0 STARLINK-5034,1 53888U 22119C   22363.47866263 -.00001709  00000-0 -89327-4 0  9997,2 53888  53.2204 159.6304 0001178 125.8777 234.2325 15.08832087 15629,6917.905,95.438,540.585,538.955,0.0
53888.0,STARLINK-5034,PAYLOAD,2022-12-29 13:04:39,15.08831517,0.0001102,53.2183,159.3282,129.6109,230.4981,-0.00012237,-2.234e-05,0.0,0 STARLINK-5034,1 53888U 22119C   22363.54490326 -.00002234  00000-0 -12237-3 0  9997,2 53888  53.2183 159.3282 0001102 129.6109 230.4981 15.08831517 15213,6917.906,95.438,540.534,539.009,0.0
53888.0,STARLINK-5034,PAYLOAD,2022-12-30 03:23:07,15.08831724,0.0001173,53.2184,156.6525,125.9232,234.1869,-0.00010039,-1.885e-05,0.0,0 STARLINK-5034,1 53888U 22119C   22364.14106446 -.00001885  00000-0 -10039-3 0  9990,2 53888  53.2184 156.6525 0001173 125.9232 234.1869 15.08831724 15720,6917.906,95.438,540.582,538.9590000000002,0.0
53888.0,STARLINK-5034,PAYLOAD,2022-12-30 17:41:36,15.08828498,0.0001099,53.2184,153.9765,117.616,242.4943,-3.1709000000000004e-05,-7.92e-06,0.0,0 STARLINK-5034,1 53888U 22119C   22364.73722817 -.00000792  00000-0 -31709-4 0  9995,2 53888  53.2184 153.9765 0001099 117.6160 242.4943 15.08828498 15393,6917.916,95.438,540.5409999999998,539.02,0.0
53888.0,STARLINK-5034,PAYLOAD,2022-12-31 03:13:54,15.08837903,0.0001042,53.2185,152.1925,119.9438,240.1658,2.8549e-05,1.67e-06,0.0,0 STARLINK-5034,1 53888U 22119C   22365.13466178  .00000167  00000-0  28549-4 0  9997,2 53888  53.2185 152.1925 0001042 119.9438 240.1658 15.08837903 15450,6917.887,95.438,540.4730000000002,539.031,0.0
53888.0,STARLINK-5034,PAYLOAD,2022-12-31 19:07:45,15.08847835,0.0001044,53.2185,149.219,113.8399,246.2703,0.00015805,2.229e-05,0.0,0 STARLINK-5034,1 53888U 22119C   22365.79705121  .00002229  00000-0  15805-3 0  9994,2 53888  53.2185 149.2190 0001044 113.8399 246.2703 15.08847835 15972,6917.856,95.437,540.444,538.999,0.0
53888.0,STARLINK-5034,PAYLOAD,2023-01-01 03:04:42,15.08831921,0.0001154,53.2186,147.7326,99.1854,260.9269,3.8109e-05,3.19e-06,0.0,0 STARLINK-5034,1 53888U 22119C   23001.12826653  .00000319  00000-0  38109-4 0  9994,2 53888  53.2186 147.7326 0001154  99.1854 260.9269 15.08831921 15600,6917.905,95.438,540.568,538.972,0.0
53888.0,STARLINK-5034,PAYLOAD,2023-01-01 09:26:15,15.08827416,0.0001224,53.2188,146.5436,99.3152,260.7979,3.3636e-05,2.47e-06,0.0,0 STARLINK-5034,1 53888U 22119C   23001.39323124  .00000247  00000-0  33636-4 0  9998,2 53888  53.2188 146.5436 0001224  99.3152 260.7979 15.08827416 16063,6917.919,95.438,540.631,538.937,0.0
53888.0,STARLINK-5034,PAYLOAD,2023-01-01 15:47:47,15.08828505,0.0001227,53.2188,145.3542,99.5435,260.5696,3.9157e-05,3.35e-06,0.0,0 STARLINK-5034,1 53888U 22119C   23001.65819189  .00000335  00000-0  39157-4 0  9990,2 53888  53.2188 145.3542 0001227  99.5435 260.5696 15.08828505 16106,6917.916,95.438,540.629,538.932,0.0
53888.0,STARLINK-5034,PAYLOAD,2023-01-02 09:17:02,15.08838932,9.87e-05,53.2185,142.0831,100.8304,259.2799,-6.3907e-05,-1.305e-05,0.0,0 STARLINK-5034,1 53888U 22119C   23002.38683136 -.00001305  00000-0 -63907-4 0  9992,2 53888  53.2185 142.0831 0000987 100.8304 259.2799 15.08838932 15799,6917.884,95.438,540.431,539.066,0.0
53888.0,STARLINK-5034,PAYLOAD,2023-01-02 18:49:20,15.08844976,9.91e-05,53.2188,140.2986,99.3177,260.7927,-4.7737e-05,-1.048e-05,0.0,0 STARLINK-5034,1 53888U 22119C   23002.78426680 -.00001048  00000-0 -47737-4 0  9992,2 53888  53.2188 140.2986 0000991  99.3177 260.7927 15.08844976 16277,6917.865,95.437,540.4159999999998,539.045,0.0
53888.0,STARLINK-5034,PAYLOAD,2023-01-03 09:07:49,15.08827949,0.0001004999999999,53.2186,137.6222,92.8651,267.2456,6.3539e-05,7.23e-06,0.0,0 STARLINK-5034,1 53888U 22119C   23003.38043457  .00000723  00000-0  63539-4 0  9991,2 53888  53.2186 137.6222 0001005  92.8651 267.2456 15.08827949 15943,6917.917,95.438,540.477,539.087,0.0
53888.0,STARLINK-5034,PAYLOAD,2023-01-04 15:20:08,15.08840365,9.18e-05,53.219,131.9733,89.4449,270.6648,3.9158e-05,3.36e-06,0.0,0 STARLINK-5034,1 53888U 22119C   23004.63898978  .00000336  00000-0  39158-4 0  9996,2 53888  53.2190 131.9733 0000918  89.4449 270.6648 15.08840365 16557,6917.879,95.438,540.379,539.109,0.0
53888.0,STARLINK-5034,PAYLOAD,2023-01-05 10:24:47,15.0883351,9.95e-05,53.2188,128.4055,89.5468,270.5638,-5.522e-05,-1.166e-05,0.0,0 STARLINK-5034,1 53888U 22119C   23005.43387782 -.00001166  00000-0 -55220-4 0  9993,2 53888  53.2188 128.4055 0000995  89.5468 270.5638 15.08833510 16258,6917.9,95.438,540.4540000000002,539.077,0.0
53888.0,STARLINK-5034,PAYLOAD,2023-01-05 15:10:55,15.08842148,8.26e-05,53.2191,127.5128,97.2168,262.8918,1.1379e-05,-1.07e-06,0.0,0 STARLINK-5034,1 53888U 22119C   23005.63258965 -.00000107  00000-0  11379-4 0  9995,2 53888  53.2191 127.5128 0000826  97.2168 262.8918 15.08842148 16701,6917.874,95.437,540.31,539.1669999999998,0.0
53888.0,STARLINK-5034,PAYLOAD,2023-01-06 08:40:10,15.08840279,8.94e-05,53.2187,124.2428,99.1452,260.9641,-0.00010448,-1.95e-05,0.0,0 STARLINK-5034,1 53888U 22119C   23006.36123636 -.00001950  00000-0 -10448-3 0  9995,2 53888  53.2187 124.2428 0000894  99.1452 260.9641 15.08840279 16395,6917.88,95.438,540.363,539.126,0.0
53888.0,STARLINK-5034,PAYLOAD,2023-01-06 16:37:05,15.08846157,8.28e-05,53.219,122.7556,92.7076,267.4011,-4.9969e-05,-1.083e-05,0.0,0 STARLINK-5034,1 53888U 22119C   23006.69243018 -.00001083  00000-0 -49969-4 0  9996,2 53888  53.2190 122.7556 0000828  92.7076 267.4011 15.08846157 16442,6917.861999999999,95.437,540.299,539.154,0.0
53888.0,STARLINK-5034,PAYLOAD,2023-01-07 00:34:02,15.08840194,9.76e-05,53.2196,121.2687,90.7069,269.4035,-9.0302e-05,-1.725e-05,0.0,0 STARLINK-5034,1 53888U 22119C   23007.02363606 -.00001725  00000-0 -90302-4 0  9990,2 53888  53.2196 121.2687 0000976  90.7069 269.4035 15.08840194 16499,6917.88,95.438,540.42,539.07,0.0
53888.0,STARLINK-5034,PAYLOAD,2023-01-07 10:06:21,15.08823505,0.0001102,53.2185,119.4824,89.8719,270.2399,-4.4069e-05,-9.89e-06,0.0,0 STARLINK-5034,1 53888U 22119C   23007.42108698 -.00000989  00000-0 -44069-4 0  9992,2 53888  53.2185 119.4824 0001102  89.8719 270.2399 15.08823505 16559,6917.931,95.439,540.558,539.033,0.0
53888.0,STARLINK-5034,PAYLOAD,2023-01-07 16:27:54,15.08822063,9.17e-05,53.2187,118.2945,98.0331,262.0765,-8.1283e-05,-1.58e-05,0.0,0 STARLINK-5034,1 53888U 22119C   23007.68605205 -.00001580  00000-0 -81283-4 0  9993,2 53888  53.2187 118.2945 0000917  98.0331 262.0765 15.08822063 17013,6917.935,95.439,540.435,539.1659999999998,0.0
53888.0,STARLINK-5034,PAYLOAD,2023-01-08 13:07:54,15.08842604,7.290000000000001e-05,53.2193,114.4292,85.4944,274.6131,5.7571e-05,6.29e-06,0.0,0 STARLINK-5034,1 53888U 22119C   23008.54715802  .00000629  00000-0  57571-4 0  9998,2 53888  53.2193 114.4292 0000729  85.4944 274.6131 15.08842604 16720,6917.871999999999,95.437,540.242,539.2330000000002,0.0
53888.0,STARLINK-5034,PAYLOAD,2023-01-08 16:18:40,15.08851507,8.73e-05,53.2185,113.834,85.9797,274.1295,0.0001195,1.615e-05,0.0,0 STARLINK-5034,1 53888U 22119C   23008.67963007  .00001615  00000-0  11950-3 0  9990,2 53888  53.2185 113.8340 0000873  85.9797 274.1295 15.08851507 16749,6917.845,95.437,540.314,539.106,0.0
53888.0,STARLINK-5034,PAYLOAD,2023-01-09 00:15:36,15.08845763,9.28e-05,53.218,112.3467,95.3623,264.7475,2.6318e-05,1.31e-06,0.0,0 STARLINK-5034,1 53888U 22119C   23009.01083540  .00000131  00000-0  26318-4 0  9991,2 53888  53.2180 112.3467 0000928  95.3623 264.7475 15.08845763 16799,6917.863,95.437,540.37,539.086,0.0
53888.0,STARLINK-5034,PAYLOAD,2023-01-10 00:06:23,15.08838146,9.91e-05,53.2187,107.8868,97.0464,263.0641,0.00013296,1.829e-05,0.0,0 STARLINK-5034,1 53888U 22119C   23010.00443622  .00001829  00000-0  13296-3 0  9998,2 53888  53.2187 107.8868 0000991  97.0464 263.0641 15.08838146 16943,6917.886,95.438,540.437,539.065,0.0
53888.0,STARLINK-5034,PAYLOAD,2023-01-10 12:49:28,15.08842604,0.0001033,53.219,105.5082,93.944,266.16700000000003,-3.4935e-05,-8.44e-06,0.0,0 STARLINK-5034,1 53888U 22119C   23010.53435877 -.00000844  00000-0 -34935-4 0  9991,2 53888  53.2190 105.5082 0001033  93.9440 266.1670 15.08842604 17443,6917.871999999999,95.437,540.452,539.023,0.0
53888.0,STARLINK-5034,PAYLOAD,2023-01-11 11:04:52,15.08838162,8.159999999999999e-05,53.2187,101.3462,95.0984,265.0101,-5.0943e-05,-1.098e-05,0.0,0 STARLINK-5034,1 53888U 22119C   23011.46172012 -.00001098  00000-0 -50943-4 0  9992,2 53888  53.2187 101.3462 0000816  95.0984 265.0101 15.08838162 17169,6917.886,95.438,540.316,539.187,0.0
53888.0,STARLINK-5034,PAYLOAD,2023-01-11 12:40:15,15.08836948,0.00012,53.219,101.0486,91.5123,268.6006,5.8573e-05,6.44e-06,0.0,0 STARLINK-5034,1 53888U 22119C   23011.52795613  .00000644  00000-0  58573-4 0  9998,2 53888  53.2190 101.0486 0001200  91.5123 268.6006 15.08836948 17590,6917.89,95.438,540.585,538.925,0.0
